{"type":"FeatureCollection","features":[{"type":"Feature","geometry":{"type":"MultiPolygon","coordinates":[[[[77.60342,12.95044],[77.60569,12.95012],[77.60647,12.94969],[77.61144,12.94902],[77.6148,12.94928],[77.61716,12.949],[77.61923,12.94751],[77.6214,12.95146],[77.62638,12.94983],[77.62836,12.94731],[77.63353,12.93713],[77.63952,12.93015],[77.63994,12.92957],[77.6419,12.92926],[77.6411,12.92597],[77.63917,12.92584],[77.63927,12.92421],[77.64155,12.92342],[77.64639,12.92448],[77.65019,12.92442],[77.65169,12.924],[77.6515,12.9212],[77.6536,12.92096],[77.6536,12.92063],[77.65466,12.92045],[77.66035,12.91634],[77.66222,12.91879],[77.66279,12.9212],[77.66116,12.92161],[77.66268,12.92657],[77.66195,12.92652],[77.66263,12.92854],[77.66109,12.92982],[77.65912,12.92942],[77.65517,12.93477],[77.66056,12.93803],[77.65906,12.9383],[77.65859,12.9379],[77.65813,12.93817],[77.6578,12.93986],[77.65424,12.94051],[77.64873,12.94353],[77.63977,12.9515],[77.64112,12.95338],[77.64276,12.95385],[77.64414,12.95337],[77.64566,12.94903],[77.64748,12.94733],[77.6488,12.94613],[77.64932,12.94744],[77.64918,12.9489],[77.65176,12.95158],[77.65252,12.95252],[77.66098,12.95287],[77.66101,12.95406],[77.66237,12.95426],[77.66239,12.95492],[77.66178,12.95495],[77.66182,12.95539],[77.66085,12.95542],[77.66337,12.95572],[77.6632,12.95745],[77.66353,12.95869],[77.66085,12.95925],[77.65966,12.95906],[77.66016,12.96087],[77.65986,12.96132],[77.65998,12.96169],[77.66082,12.96161],[77.66105,12.9622],[77.66152,12.96245],[77.66179,12.96425],[77.66106,12.9643],[77.66068,12.96487],[77.66179,12.96619],[77.66165,12.9668],[77.65849,12.96743],[77.65795,12.96817],[77.65727,12.96824],[77.6577,12.97071],[77.65929,12.97154],[77.66152,12.97162],[77.66157,12.97198],[77.6639,12.97163],[77.66541,12.97175],[77.66632,12.97164],[77.66689,12.97258],[77.66691,12.9743],[77.6666,12.97537],[77.66908,12.97531],[77.67797,12.97273],[77.67931,12.97689],[77.68025,12.98306],[77.67436,12.98638],[77.67082,12.98602],[77.66871,12.9859],[77.6682,12.98563],[77.66752,12.98602],[77.66763,12.98953],[77.66821,12.99001],[77.665,12.99315],[77.66283,12.99669],[77.66404,12.99753],[77.66347,12.99993],[77.6623,13.01239],[77.65755,13.01003],[77.65288,13.00582],[77.65126,13.00608],[77.65147,13.0065],[77.64886,13.00756],[77.64662,13.0079],[77.64519,13.0064],[77.63801,13.0054],[77.63644,13.00382],[77.63868,13.00226],[77.64272,12.9958],[77.64132,12.99578],[77.64118,12.9954],[77.64066,12.99568],[77.64045,12.99487],[77.6382,12.99507],[77.63789,12.99364],[77.63744,12.99341],[77.63737,12.99287],[77.62915,12.99447],[77.62505,12.99579],[77.62011,12.9999],[77.61775,12.998],[77.617,12.99557],[77.61936,12.99169],[77.61931,12.9872],[77.61221,12.9914],[77.6085,12.99348],[77.60731,12.99324],[77.60689,12.99024],[77.60536,12.99015],[77.60387,12.99273],[77.60182,12.99248],[77.59658,12.99451],[77.60096,12.99564],[77.60567,12.9943],[77.60864,12.99881],[77.60694,12.9995],[77.60625,12.99776],[77.60495,12.9981],[77.60378,12.99908],[77.60185,12.99988],[77.60152,13.00144],[77.60256,13.00153],[77.60381,13.00395],[77.60524,13.00667],[77.59577,13.01122],[77.59326,13.00565],[77.59625,12.99497],[77.59612,12.99471],[77.59346,12.99547],[77.58968,12.99533],[77.5859,12.99763],[77.58431,12.99806],[77.58416,12.99927],[77.583,12.99925],[77.58086,12.99726],[77.57832,12.99757],[77.57823,12.99919],[77.57397,12.99891],[77.57379,13.00098],[77.57225,13.00101],[77.57218,13.00318],[77.5713,13.00332],[77.5714,12.99685],[77.5661,12.99661],[77.56831,12.99339],[77.56781,12.99338],[77.56793,12.98842],[77.56148,12.98807],[77.56185,12.9872],[77.56084,12.98677],[77.56173,12.98192],[77.56114,12.98158],[77.56035,12.98023],[77.55918,12.97974],[77.5587,12.97884],[77.55558,12.97756],[77.55449,12.97557],[77.5587,12.97574],[77.55771,12.97193],[77.55711,12.96938],[77.55118,12.96777],[77.5485,12.96515],[77.54539,12.96426],[77.5439,12.96402],[77.54552,12.96259],[77.54527,12.96233],[77.54935,12.95472],[77.54924,12.95233],[77.55178,12.95182],[77.55267,12.95069],[77.55377,12.9508],[77.55427,12.95179],[77.55566,12.95167],[77.55681,12.95324],[77.55926,12.95346],[77.56169,12.95337],[77.56179,12.95165],[77.56221,12.95005],[77.5615,12.94936],[77.56424,12.94852],[77.5643,12.94174],[77.5651,12.94175],[77.56404,12.93943],[77.56591,12.93933],[77.56632,12.94019],[77.56665,12.94018],[77.567,12.94174],[77.56784,12.94287],[77.56784,12.9436],[77.57377,12.94368],[77.57389,12.94063],[77.57776,12.9406],[77.57768,12.93969],[77.58009,12.93677],[77.58614,12.93646],[77.58794,12.9352],[77.5892,12.93581],[77.58994,12.93551],[77.59012,12.93632],[77.59062,12.93621],[77.59131,12.93649],[77.5927,12.93621],[77.5925,12.92847],[77.6005,12.92829],[77.6016,12.93711],[77.59875,12.93808],[77.59759,12.94043],[77.59726,12.94319],[77.60261,12.94214],[77.60255,12.94552],[77.60279,12.94876],[77.60342,12.95044]]],[[[77.55566,12.95167],[77.55539,12.95046],[77.5575,12.9501],[77.55783,12.95014],[77.55714,12.95118],[77.55566,12.95167]]]]},"properties":{"corporation":"Central"}},{"type":"Feature","geometry":{"type":"Polygon","coordinates":[[[77.66404,12.99753],[77.66283,12.99669],[77.66634,12.99152],[77.66821,12.99001],[77.66741,12.98867],[77.66752,12.98602],[77.6682,12.98563],[77.67045,12.98607],[77.67214,12.98599],[77.67492,12.98637],[77.68025,12.98306],[77.67892,12.97529],[77.67797,12.97273],[77.66727,12.97556],[77.6666,12.97537],[77.6668,12.9734],[77.66689,12.97258],[77.66605,12.97146],[77.66479,12.97178],[77.66198,12.97179],[77.66157,12.97198],[77.66152,12.97162],[77.65873,12.97125],[77.65766,12.97034],[77.65727,12.96824],[77.65795,12.96817],[77.65849,12.96743],[77.66165,12.9668],[77.66179,12.96619],[77.66156,12.96553],[77.66068,12.96487],[77.66134,12.96419],[77.66179,12.96425],[77.66139,12.96215],[77.66105,12.9622],[77.66082,12.96161],[77.65998,12.96169],[77.65977,12.96103],[77.66016,12.96087],[77.65966,12.95906],[77.66308,12.95902],[77.66353,12.95869],[77.66303,12.95683],[77.66337,12.95572],[77.66085,12.95542],[77.66182,12.95539],[77.66178,12.95495],[77.66239,12.95492],[77.66237,12.95426],[77.66101,12.95406],[77.66098,12.95287],[77.65252,12.95252],[77.65176,12.95158],[77.64918,12.9489],[77.64907,12.94631],[77.6488,12.94613],[77.64566,12.94903],[77.64414,12.95337],[77.6421,12.95386],[77.64066,12.95301],[77.63992,12.95119],[77.65024,12.94247],[77.65502,12.94018],[77.65808,12.9398],[77.65814,12.9379],[77.65892,12.93798],[77.65906,12.9383],[77.66056,12.93803],[77.65517,12.93477],[77.65912,12.92942],[77.66133,12.92967],[77.66302,12.92833],[77.66493,12.92814],[77.6664,12.93101],[77.66804,12.93124],[77.66778,12.92882],[77.66856,12.92843],[77.66892,12.92525],[77.66887,12.92345],[77.66808,12.9233],[77.66778,12.92166],[77.66676,12.92101],[77.66555,12.92108],[77.66513,12.92059],[77.67352,12.91674],[77.67447,12.91541],[77.67722,12.91413],[77.68977,12.90876],[77.69932,12.90603],[77.70687,12.90203],[77.70835,12.90806],[77.71459,12.90794],[77.71612,12.90739],[77.71764,12.90897],[77.71786,12.90837],[77.71972,12.90815],[77.71978,12.90865],[77.7208,12.90882],[77.72079,12.90815],[77.72459,12.90691],[77.72628,12.90657],[77.72761,12.91089],[77.72778,12.9145],[77.73207,12.91391],[77.73375,12.91413],[77.73437,12.91404],[77.73445,12.9132],[77.7374,12.91349],[77.73742,12.91469],[77.74467,12.91367],[77.74523,12.91609],[77.74579,12.91977],[77.75145,12.92232],[77.75237,12.92533],[77.7605,12.92769],[77.7646,12.92876],[77.76639,12.93492],[77.76552,12.93753],[77.76537,12.94427],[77.76528,12.94886],[77.76455,12.95379],[77.76467,12.95945],[77.76521,12.95985],[77.76651,12.95939],[77.76722,12.95956],[77.76895,12.96164],[77.76995,12.9619],[77.77051,12.96321],[77.77132,12.96503],[77.77245,12.96597],[77.77526,12.9669],[77.77778,12.9681],[77.77868,12.96774],[77.77898,12.96682],[77.78131,12.96689],[77.78222,12.96621],[77.78406,12.96673],[77.7832,12.9709],[77.78116,12.97072],[77.7805,12.97002],[77.77857,12.97076],[77.77892,12.97252],[77.77625,12.9748],[77.77692,12.97625],[77.77833,12.97657],[77.77824,12.97824],[77.77679,12.97878],[77.77503,12.98028],[77.77479,12.98075],[77.77685,12.98504],[77.77587,12.98645],[77.77606,12.98879],[77.77549,12.99171],[77.77411,12.99198],[77.77454,12.99796],[77.77495,12.99818],[77.77475,13.00112],[77.77374,13.00147],[77.77262,13.00288],[77.77478,13.00297],[77.77562,13.00405],[77.77584,13.00576],[77.77436,13.00636],[77.77357,13.00617],[77.77328,13.00991],[77.774,13.01175],[77.77406,13.01325],[77.77239,13.015],[77.77146,13.01504],[77.76968,13.00841],[77.76898,13.00356],[77.76858,13.00265],[77.76424,13.00404],[77.7638,13.00294],[77.76336,13.00285],[77.76199,13.00512],[77.76021,13.00525],[77.75941,13.00628],[77.75954,13.0075],[77.75534,13.01025],[77.75467,13.00888],[77.75197,13.01083],[77.74984,13.01135],[77.74788,13.01273],[77.7478,13.0115],[77.74745,13.0116],[77.74703,13.0105],[77.7471,13.00693],[77.74105,13.00741],[77.74088,13.00813],[77.73767,13.00772],[77.73615,13.00761],[77.73623,13.01076],[77.73474,13.01054],[77.73405,13.01023],[77.73141,13.01082],[77.72813,13.0108],[77.7291,13.01546],[77.7301,13.01978],[77.72578,13.02577],[77.72515,13.02593],[77.72485,13.03126],[77.72475,13.03244],[77.72417,13.03267],[77.7239,13.03357],[77.72144,13.03406],[77.71738,13.03265],[77.71734,13.03158],[77.71508,13.03194],[77.7108,13.02622],[77.70898,13.02537],[77.70548,13.02613],[77.70119,13.02495],[77.70168,13.02738],[77.69438,13.02674],[77.69091,13.03249],[77.68647,13.03355],[77.68362,13.03335],[77.68494,13.0456],[77.6838,13.05003],[77.67992,13.05243],[77.6784,13.05244],[77.67942,13.05612],[77.67888,13.05803],[77.67947,13.05853],[77.67957,13.06129],[77.67913,13.06287],[77.67667,13.06288],[77.67712,13.06506],[77.67463,13.06521],[77.67003,13.06578],[77.66732,13.06384],[77.66702,13.0659],[77.6598,13.0681],[77.65747,13.0734],[77.65634,13.07522],[77.65472,13.08199],[77.64959,13.08136],[77.64658,13.08513],[77.6423,13.07816],[77.64106,13.07701],[77.63981,13.07676],[77.63831,13.07516],[77.63949,13.07494],[77.63919,13.0682],[77.63817,13.06049],[77.6381,13.05368],[77.63778,13.05181],[77.63842,13.0515],[77.63712,13.0435],[77.63728,13.04293],[77.63976,13.04319],[77.64139,13.04242],[77.64174,13.03946],[77.64296,13.03895],[77.64371,13.03894],[77.64479,13.03585],[77.64323,13.03591],[77.64337,13.03387],[77.64104,13.03426],[77.63913,13.03115],[77.63774,13.02948],[77.63761,13.028],[77.63567,13.028],[77.63374,13.02857],[77.63279,13.02786],[77.63715,13.02632],[77.64063,13.02547],[77.66202,13.01603],[77.66387,12.99781],[77.66404,12.99753]]]},"properties":{"corporation":"East"}},{"type":"Feature","geometry":{"type":"Polygon","coordinates":[[[77.62599,12.99529],[77.62915,12.99447],[77.63737,12.99287],[77.63744,12.99341],[77.63798,12.99391],[77.6382,12.99507],[77.64045,12.99487],[77.64066,12.99568],[77.64118,12.9954],[77.64132,12.99578],[77.64272,12.9958],[77.63809,13.00291],[77.63644,13.00382],[77.63801,13.0054],[77.64547,13.0064],[77.64662,13.0079],[77.65041,13.00707],[77.65147,13.0065],[77.65126,13.00608],[77.65317,13.00605],[77.65813,13.01045],[77.6623,13.01239],[77.6618,13.01634],[77.63858,13.02607],[77.63389,13.02726],[77.63279,13.02786],[77.63374,13.02857],[77.63658,13.02777],[77.63761,13.028],[77.63802,13.03016],[77.63965,13.03204],[77.64104,13.03426],[77.64337,13.03387],[77.64323,13.03591],[77.64479,13.03585],[77.64371,13.03894],[77.64208,13.03914],[77.64147,13.03988],[77.64112,13.04262],[77.63859,13.04328],[77.63728,13.04293],[77.63735,13.04614],[77.63842,13.0515],[77.63778,13.05181],[77.63834,13.05652],[77.63857,13.06529],[77.6395,13.07095],[77.63949,13.07494],[77.63831,13.07516],[77.64024,13.07693],[77.64173,13.07748],[77.64656,13.08544],[77.64627,13.08631],[77.6427,13.08689],[77.64879,13.1002],[77.65024,13.10449],[77.64385,13.10574],[77.64128,13.10566],[77.63702,13.10627],[77.63848,13.11363],[77.63017,13.12612],[77.62521,13.12795],[77.6184,13.1316],[77.61553,13.13117],[77.61168,13.13311],[77.60184,13.13431],[77.59955,13.13208],[77.59657,13.13293],[77.58621,13.13331],[77.58575,13.13306],[77.58582,13.13275],[77.58485,13.1331],[77.58274,13.13891],[77.58248,13.14003],[77.57991,13.14262],[77.57389,13.14114],[77.5735,13.13649],[77.57335,13.13607],[77.57191,13.13597],[77.5696,13.12503],[77.56556,13.12596],[77.56306,13.11943],[77.56165,13.114],[77.55968,13.11211],[77.56031,13.11115],[77.56005,13.10931],[77.561,13.10877],[77.55821,13.10295],[77.55571,13.10017],[77.54455,13.10132],[77.54423,13.10132],[77.54408,13.1001],[77.54212,13.09402],[77.54072,13.09178],[77.54071,13.08997],[77.53544,13.0902],[77.53439,13.09214],[77.52377,13.0929],[77.52323,13.081],[77.52126,13.08033],[77.52088,13.07915],[77.51895,13.07956],[77.51796,13.07418],[77.51254,13.07559],[77.51064,13.07599],[77.50884,13.07783],[77.50713,13.07798],[77.50456,13.07612],[77.503,13.07479],[77.501,13.07264],[77.49942,13.072],[77.49834,13.07329],[77.49301,13.07342],[77.49275,13.06376],[77.49304,13.06225],[77.49096,13.05696],[77.49235,13.05445],[77.49247,13.05177],[77.49715,13.05045],[77.49676,13.04892],[77.51003,13.04421],[77.51698,13.04123],[77.51839,13.03994],[77.52219,13.0459],[77.54075,13.03252],[77.54215,13.03853],[77.54295,13.03929],[77.54532,13.03599],[77.55277,13.02119],[77.55389,13.01919],[77.55437,13.0198],[77.55554,13.01997],[77.5598,13.03115],[77.55739,13.03515],[77.5573,13.03854],[77.56008,13.03922],[77.56216,13.04192],[77.56999,13.032],[77.57153,13.02844],[77.57771,13.02725],[77.57812,13.02685],[77.58027,13.02635],[77.58197,13.02492],[77.58458,13.02297],[77.58394,13.01872],[77.58404,13.01451],[77.58743,13.014],[77.59185,13.00816],[77.59324,13.00572],[77.59577,13.01122],[77.60524,13.00667],[77.60381,13.00395],[77.60256,13.00153],[77.60152,13.00144],[77.60185,12.99988],[77.60487,12.99838],[77.60509,12.99779],[77.60652,12.99788],[77.60694,12.9995],[77.60864,12.99881],[77.60539,12.99434],[77.60035,12.99563],[77.59658,12.99451],[77.6024,12.99239],[77.60387,12.99273],[77.60536,12.99015],[77.60717,12.99039],[77.60731,12.99324],[77.60882,12.99346],[77.61221,12.9914],[77.61828,12.98775],[77.61931,12.9872],[77.61936,12.99169],[77.617,12.99557],[77.61794,12.99828],[77.62011,12.9999],[77.62599,12.99529]]]},"properties":{"corporation":"North"}},{"type":"Feature","geometry":{"type":"Polygon","coordinates":[[[77.6214,12.95146],[77.61923,12.94751],[77.61638,12.94927],[77.61166,12.94931],[77.6103,12.9491],[77.60579,12.9498],[77.60419,12.95034],[77.60342,12.95044],[77.60244,12.94689],[77.60272,12.94253],[77.60261,12.94214],[77.59726,12.94319],[77.59807,12.93904],[77.59961,12.93753],[77.6016,12.93711],[77.6005,12.92829],[77.5925,12.92847],[77.5927,12.93621],[77.59104,12.93667],[77.59062,12.93621],[77.59012,12.93632],[77.58994,12.93551],[77.58889,12.93563],[77.58763,12.9352],[77.58573,12.9366],[77.58511,12.93663],[77.58486,12.9329],[77.57962,12.93305],[77.57965,12.92344],[77.57359,12.92356],[77.57373,12.92099],[77.5744,12.92084],[77.57353,12.91698],[77.5704,12.91634],[77.56956,12.91552],[77.56867,12.91797],[77.56607,12.9188],[77.56485,12.91676],[77.56343,12.91942],[77.56185,12.92108],[77.56143,12.92164],[77.55625,12.92297],[77.5557,12.92102],[77.55363,12.92072],[77.55259,12.91967],[77.5521,12.91948],[77.55161,12.91708],[77.55061,12.91582],[77.54804,12.91664],[77.54857,12.91784],[77.54684,12.91833],[77.54591,12.91814],[77.54476,12.91824],[77.5447,12.91752],[77.54201,12.91818],[77.54168,12.91879],[77.53913,12.91761],[77.53643,12.91925],[77.53178,12.91779],[77.53109,12.9131],[77.52587,12.90426],[77.52591,12.90247],[77.52628,12.9021],[77.52432,12.89747],[77.52175,12.89758],[77.52113,12.89784],[77.52048,12.89663],[77.52099,12.89432],[77.52057,12.89356],[77.51887,12.89292],[77.51824,12.89341],[77.51712,12.89326],[77.51608,12.89379],[77.51563,12.89328],[77.51578,12.89251],[77.51541,12.89247],[77.51498,12.89302],[77.51408,12.89287],[77.51422,12.8937],[77.51244,12.89208],[77.50973,12.88854],[77.4992,12.88246],[77.49297,12.87652],[77.4893,12.87199],[77.4918,12.87086],[77.49275,12.87208],[77.49474,12.8718],[77.49517,12.87296],[77.49663,12.8727],[77.49724,12.87258],[77.50455,12.87701],[77.50542,12.87659],[77.50836,12.87123],[77.51052,12.86896],[77.51159,12.86806],[77.51544,12.86788],[77.52021,12.87215],[77.52309,12.87058],[77.52022,12.86634],[77.51954,12.86215],[77.51842,12.86106],[77.51956,12.85395],[77.52166,12.84829],[77.52352,12.83995],[77.52606,12.84064],[77.53391,12.83992],[77.53578,12.84117],[77.53757,12.84174],[77.53835,12.8453],[77.54068,12.84479],[77.54168,12.84333],[77.54327,12.84373],[77.54431,12.84437],[77.54468,12.84762],[77.55149,12.84801],[77.55302,12.84716],[77.55323,12.84773],[77.55488,12.84785],[77.55735,12.84419],[77.55741,12.84184],[77.56268,12.84027],[77.56254,12.83909],[77.56657,12.83958],[77.57187,12.8392],[77.57433,12.83734],[77.57479,12.83749],[77.57516,12.83865],[77.58034,12.83778],[77.58199,12.83695],[77.58223,12.83638],[77.58706,12.83352],[77.58998,12.83553],[77.59056,12.83559],[77.59063,12.83497],[77.59153,12.83458],[77.594,12.84117],[77.59485,12.84745],[77.59561,12.84919],[77.60019,12.84791],[77.60267,12.8484],[77.60708,12.84747],[77.60922,12.84607],[77.6091,12.85127],[77.61275,12.85175],[77.61496,12.85473],[77.61649,12.85571],[77.6171,12.8575],[77.62112,12.85794],[77.62922,12.85728],[77.63068,12.85945],[77.63126,12.86044],[77.63439,12.86184],[77.63407,12.86226],[77.6352,12.86305],[77.63729,12.8629],[77.63849,12.86346],[77.63907,12.865],[77.64121,12.86501],[77.6429,12.85945],[77.64309,12.85058],[77.64522,12.85207],[77.64524,12.85165],[77.64792,12.85224],[77.64796,12.85194],[77.64869,12.85204],[77.64863,12.85267],[77.64935,12.85287],[77.64965,12.85211],[77.65007,12.85215],[77.64979,12.8533],[77.65172,12.85492],[77.65268,12.85494],[77.65313,12.85565],[77.65528,12.85621],[77.65545,12.85584],[77.65613,12.8571],[77.65745,12.85783],[77.6574,12.85855],[77.66138,12.85885],[77.66372,12.86078],[77.66409,12.86242],[77.66473,12.86271],[77.66672,12.86621],[77.67291,12.86835],[77.67281,12.86931],[77.67527,12.87288],[77.67379,12.87696],[77.67162,12.87998],[77.67397,12.87985],[77.67401,12.88426],[77.67233,12.88465],[77.67387,12.89315],[77.6773,12.89424],[77.67959,12.8976],[77.68228,12.89996],[77.68255,12.90141],[77.68727,12.90245],[77.68749,12.90336],[77.68572,12.90444],[77.68731,12.90473],[77.68685,12.90645],[77.68808,12.9062],[77.68836,12.90548],[77.69112,12.90524],[77.69151,12.90418],[77.69393,12.9043],[77.69766,12.90418],[77.69785,12.90454],[77.7024,12.90358],[77.70285,12.90404],[77.69753,12.90664],[77.68649,12.90997],[77.67539,12.91477],[77.67364,12.91623],[77.67233,12.91752],[77.66513,12.92059],[77.66555,12.92108],[77.66711,12.92123],[77.66778,12.92166],[77.66808,12.9233],[77.66887,12.92345],[77.6688,12.92744],[77.66835,12.92871],[77.66778,12.92882],[77.66804,12.93124],[77.66618,12.93076],[77.66493,12.92814],[77.66302,12.92833],[77.66263,12.92854],[77.66195,12.92652],[77.66268,12.92657],[77.66116,12.92161],[77.66279,12.9212],[77.662,12.91826],[77.66035,12.91634],[77.65438,12.92048],[77.6536,12.92063],[77.6536,12.92096],[77.6515,12.9212],[77.65169,12.924],[77.64834,12.92465],[77.64353,12.92396],[77.64109,12.9234],[77.63927,12.92421],[77.63917,12.92584],[77.64133,12.92621],[77.6419,12.92926],[77.63958,12.92971],[77.63955,12.9305],[77.63776,12.93247],[77.63264,12.93852],[77.62751,12.9488],[77.62542,12.95034],[77.6214,12.95146]]]},"properties":{"corporation":"South"}},{"type":"Feature","geometry":{"type":"Polygon","coordinates":[[[77.55389,13.01919],[77.54897,13.02868],[77.54396,13.03812],[77.54295,13.03929],[77.54195,13.03831],[77.54075,13.03252],[77.52219,13.0459],[77.51839,13.03994],[77.51571,13.04202],[77.50906,13.04473],[77.49666,13.04921],[77.49701,13.05068],[77.49258,13.05156],[77.49097,13.0451],[77.48214,13.04841],[77.48086,13.04853],[77.48014,13.04878],[77.47987,13.04426],[77.4807,13.04318],[77.48147,13.04262],[77.4824,13.0406],[77.48109,13.03904],[77.4801,13.03793],[77.47991,13.03564],[77.47842,13.03453],[77.47687,13.03152],[77.47954,13.02916],[77.47858,13.02592],[77.47834,13.02228],[77.47883,13.02213],[77.47781,13.01801],[77.47694,13.01479],[77.47509,13.0125],[77.47374,13.00925],[77.47303,13.00842],[77.47286,13.00726],[77.47531,13.00647],[77.47517,13.00437],[77.47527,13.00256],[77.4742,12.99922],[77.47349,12.9986],[77.47279,12.99674],[77.47231,12.99651],[77.47123,12.99429],[77.4698,12.98937],[77.46855,12.9869],[77.47301,12.98405],[77.47434,12.97928],[77.47509,12.9715],[77.47482,12.96959],[77.47335,12.96641],[77.47331,12.96303],[77.47504,12.96045],[77.47172,12.95399],[77.47155,12.95229],[77.47251,12.9516],[77.47167,12.95076],[77.47123,12.95073],[77.47106,12.94959],[77.47613,12.9489],[77.47426,12.94218],[77.47325,12.94033],[77.47529,12.93947],[77.4764,12.93863],[77.47627,12.93831],[77.4804,12.93737],[77.48424,12.93692],[77.48389,12.93389],[77.48313,12.93239],[77.48332,12.93134],[77.48308,12.93107],[77.48252,12.92927],[77.48099,12.92741],[77.47952,12.92749],[77.47912,12.92723],[77.47962,12.92622],[77.47961,12.92594],[77.47482,12.92668],[77.47339,12.92664],[77.46976,12.91472],[77.4665,12.91015],[77.46667,12.90688],[77.46079,12.90658],[77.46005,12.90636],[77.46029,12.89823],[77.46098,12.89839],[77.4684,12.88847],[77.47012,12.89399],[77.47342,12.8984],[77.47723,12.89645],[77.47547,12.89469],[77.47586,12.8942],[77.47674,12.89447],[77.4792,12.89176],[77.47942,12.88971],[77.48113,12.89013],[77.48223,12.8888],[77.48285,12.88595],[77.47877,12.88612],[77.47877,12.88433],[77.47487,12.88042],[77.47571,12.87844],[77.47971,12.87797],[77.48167,12.87788],[77.48091,12.87428],[77.48313,12.87435],[77.48464,12.87183],[77.48599,12.87136],[77.48834,12.87198],[77.48836,12.8724],[77.4893,12.87199],[77.49599,12.87976],[77.50217,12.88436],[77.50973,12.88854],[77.51393,12.89375],[77.51422,12.8937],[77.51408,12.89287],[77.51527,12.89292],[77.51541,12.89247],[77.51578,12.89251],[77.51573,12.89355],[77.51682,12.8936],[77.5175,12.89316],[77.51864,12.89319],[77.51966,12.89301],[77.5209,12.89361],[77.52058,12.8963],[77.52074,12.89737],[77.52151,12.89776],[77.52275,12.89755],[77.52432,12.89747],[77.52634,12.90238],[77.52591,12.90247],[77.52587,12.90426],[77.53109,12.9131],[77.53178,12.91779],[77.53643,12.91925],[77.53947,12.9176],[77.54199,12.9188],[77.54201,12.91818],[77.5447,12.91752],[77.54476,12.91824],[77.54672,12.91803],[77.54729,12.91822],[77.54857,12.91784],[77.54804,12.91664],[77.55061,12.91582],[77.552,12.91823],[77.55219,12.91975],[77.55259,12.91967],[77.55432,12.92106],[77.5557,12.92102],[77.55625,12.92297],[77.56165,12.92148],[77.56209,12.92048],[77.56428,12.91811],[77.56485,12.91676],[77.56607,12.9188],[77.56867,12.91797],[77.56956,12.91552],[77.57124,12.91655],[77.57353,12.91698],[77.5744,12.92084],[77.57373,12.92099],[77.57359,12.92356],[77.57965,12.92344],[77.57962,12.93305],[77.58486,12.9329],[77.58491,12.93663],[77.58009,12.93677],[77.5777,12.93997],[77.57776,12.9406],[77.57389,12.94063],[77.57377,12.94368],[77.56784,12.9436],[77.56749,12.94227],[77.56667,12.9407],[77.56665,12.94018],[77.56592,12.93976],[77.56591,12.93933],[77.56404,12.93943],[77.5651,12.94175],[77.5643,12.94174],[77.56424,12.94852],[77.5615,12.94936],[77.56227,12.95036],[77.56141,12.95335],[77.55926,12.95346],[77.55631,12.95295],[77.55566,12.95167],[77.55427,12.95179],[77.55339,12.95067],[77.55267,12.95069],[77.55121,12.95213],[77.54924,12.95233],[77.54935,12.95472],[77.54527,12.96233],[77.54535,12.96281],[77.5439,12.96402],[77.54786,12.96482],[77.55094,12.96751],[77.55442,12.96887],[77.55713,12.96967],[77.55835,12.97452],[77.5587,12.97574],[77.55449,12.97557],[77.55592,12.97775],[77.55902,12.97899],[77.55918,12.97974],[77.56084,12.98058],[77.56139,12.98185],[77.56165,12.98232],[77.56084,12.98677],[77.56185,12.9872],[77.56166,12.98829],[77.56793,12.98842],[77.56781,12.99338],[77.56831,12.99339],[77.5661,12.99661],[77.5714,12.99685],[77.5713,13.00332],[77.57218,13.00318],[77.57225,13.00101],[77.57379,13.00098],[77.57397,12.99891],[77.57823,12.99919],[77.57832,12.99757],[77.58086,12.99726],[77.58341,12.99932],[77.58416,12.99927],[77.58444,12.99782],[77.58682,12.99733],[77.58968,12.99533],[77.59501,12.99521],[77.59612,12.99471],[77.59448,13.0015],[77.59268,13.0068],[77.5878,13.01379],[77.58464,13.0145],[77.58394,13.0148],[77.58422,13.02137],[77.58458,13.02297],[77.5795,13.02664],[77.57773,13.02689],[77.5773,13.02731],[77.57125,13.02846],[77.56948,13.03288],[77.56216,13.04192],[77.56008,13.03922],[77.5573,13.03854],[77.5576,13.03433],[77.55998,13.03093],[77.55554,13.01997],[77.55437,13.0198],[77.55389,13.01919]],[[77.55566,12.95167],[77.55761,12.95078],[77.55783,12.95014],[77.55653,12.95016],[77.55539,12.95046],[77.55566,12.95167]]]},"properties":{"corporation":"West"}}]}